FENGYUN 1C DEB          
1 31074U 99025BFU 17344.70214140  .00001263  00000-0  88737-3 0  9996
2 31074  99.0106 258.9195 0103737  91.8245 269.4803 13.97436911546091
